[{"OBJECT_NAME":"STARLINK-5158","OBJECT_ID":"2022-136E","EPOCH":"2026-03-09T23:14:10.235328","MEAN_MOTION":15.0882895,"ECCENTRICITY":0.00017304,"INCLINATION":53.2199,"RA_OF_ASC_NODE":343.0448,"ARG_OF_PERICENTER":42.7083,"MEAN_ANOMALY":317.4044,"EPHEMERIS_TYPE":0,"CLASSIFICATION_TYPE":"U","NORAD_CAT_ID":54055,"ELEMENT_SET_NO":999,"REV_AT_EPOCH":18688,"BSTAR":0.00012279469,"MEAN_MOTION_DOT":1.666e-5,"MEAN_MOTION_DDOT":0},{"OBJECT_NAME":"LEMUR-2-MARHISYAM","OBJECT_ID":"2024-149BW","EPOCH":"2026-03-09T17:46:07.876416","MEAN_MOTION":15.0901552,"ECCENTRICITY":0.00035778,"INCLINATION":97.6912,"RA_OF_ASC_NODE":151.2662,"ARG_OF_PERICENTER":107.3271,"MEAN_ANOMALY":252.8349,"EPHEMERIS_TYPE":0,"CLASSIFICATION_TYPE":"U","NORAD_CAT_ID":60536,"ELEMENT_SET_NO":999,"REV_AT_EPOCH":8547,"BSTAR":0.00082973442,"MEAN_MOTION_DOT":0.00013075,"MEAN_MOTION_DDOT":0}]
